GLOBALSTAR M068         
1 32266U 07048D   24337.53787032 -.00000049  00000+0  30328-3 0  9994
2 32266  51.9860 181.7037 0002084  74.7579 319.7434 12.62810517792710
GLOBALSTAR M079         
1 37188U 10054A   24337.50328944 -.00000080  00000+0  13463-3 0  9999
2 37188  52.0061  18.5248 0000431 157.4911 351.0870 12.62267805651619
GLOBALSTAR M074         
1 37189U 10054B   24337.52922118 -.00000070  00000+0  18579-3 0  9997
2 37189  52.0039  17.7963 0000236  82.7509  65.1560 12.62259781652227
GLOBALSTAR M076         
1 37190U 10054C   24337.54872321 -.00000069  00000+0  19432-3 0  9998
2 37190  52.0052  17.8931 0000105 201.0126 273.6781 12.62274193651949
GLOBALSTAR M077         
1 37191U 10054D   24337.27576051 -.00000088  00000+0  90505-4 0  9992
2 37191  52.0087 335.5244 0000287  67.3309 306.2623 12.62267704652288
GLOBALSTAR M075         
1 37192U 10054E   24337.53928581 -.00000082  00000+0  11962-3 0  9994
2 37192  51.9961  60.2850 0000550 113.5335 259.6184 12.62269571651016
GLOBALSTAR M073         
1 37193U 10054F   24337.41055014 -.00000092  00000+0  65664-4 0  9994
2 37193  52.0075 334.3469 0000163  48.9013  99.0341 12.62273366652985
GLOBALSTAR M083         
1 37739U 11033A   24337.58714216 -.00000071  00000+0  18271-3 0  9990
2 37739  51.9864 282.8098 0000568  75.7927  94.8998 12.62268635622027
GLOBALSTAR M088         
1 37740U 11033B   24337.32305977 -.00000059  00000+0  24867-3 0  9998
2 37740  51.9709 189.2708 0001091  89.6513  81.0794 12.62266105617534
GLOBALSTAR M091         
1 37741U 11033C   24337.46123558 -.00000093  00000+0  58647-4 0  9999
2 37741  51.9968 152.0539 0001250 108.8198 268.8734 12.62271431618349
GLOBALSTAR M085         
1 37742U 11033D   24337.60500694 -.00000109  00000+0 -28657-4 0  9993
2 37742  51.9857 102.8250 0001067 122.4019 250.1366 12.62269743618876
GLOBALSTAR M081         
1 37743U 11033E   24337.47632760 -.00000113  00000+0 -53447-4 0  9999
2 37743  51.9948 105.8826 0000828 132.2347 255.3000 12.62273825619001
GLOBALSTAR M089         
1 37744U 11033F   24337.62164771 -.00000090  00000+0  74435-4 0  9992
2 37744  51.9944  59.7068 0000293 113.4024  33.9029 12.62272678620112
GLOBALSTAR M084         
1 38040U 11080A   24337.32181931 -.00000069  00000+0  19547-3 0  9996
2 38040  52.0016 287.8040 0000706  31.4014 133.0582 12.62271549597806
GLOBALSTAR M080         
1 38041U 11080B   24337.18306453 -.00000079  00000+0  14050-3 0  9994
2 38041  52.0068 289.7650 0000594   7.1675   5.7456 12.62269315597915
GLOBALSTAR M082         
1 38042U 11080C   24337.22052742 -.00000047  00000+0  31613-3 0  9998
2 38042  52.0071 245.0762 0001224  84.0233  39.5535 12.62270426598621
GLOBALSTAR M092         
1 38043U 11080D   24337.51510654 -.00000094  00000+0  53673-4 0  9995
2 38043  52.0102 334.5450 0000430  57.4645  85.4887 12.62269913597116
GLOBALSTAR M090         
1 38044U 11080E   24337.49474284 -.00000042  00000+0  34534-3 0  9998
2 38044  51.9882 238.3025 0000945  79.6666  91.0804 12.62264336598778
GLOBALSTAR M086         
1 38045U 11080F   24337.11853862 -.00000048  00000+0  30898-3 0  9996
2 38045  51.9891 239.9832 0000055 166.5439 334.3266 12.62264117598679
GLOBALSTAR M097         
1 39072U 13005A   24337.51029835 -.00000091  00000+0  68732-4 0  9992
2 39072  52.0016 153.1384 0001012 108.7052 251.3924 12.62268125545970
GLOBALSTAR M093         
1 39073U 13005B   24337.40421466 -.00000103  00000+0  52615-5 0  9995
2 39073  51.9783 147.0756 0001108 112.2704 247.8280 12.62276912545917
GLOBALSTAR M094         
1 39074U 13005C   24337.48363693 -.00000086  00000+0  10111-3 0  9994
2 39074  51.9974  61.0196 0000756 144.6861 215.4056 12.62265749547532
GLOBALSTAR M096         
1 39075U 13005D   24337.49682672 -.00000108  00000+0 -24654-4 0  9991
2 39075  52.0060 109.3399 0001104 125.6382 234.4587 12.62265234546805
GLOBALSTAR M078         
1 39076U 13005E   24337.31155160 -.00000065  00000+0  21879-3 0  9996
2 39076  51.9848 194.6810 0001858  94.5186 265.5893 12.62267270545058
GLOBALSTAR M095         
1 39077U 13005F   24337.49676787 -.00000059  00000+0  25066-3 0  9994
2 39077  51.9778 191.4143 0001491 102.4115 257.6919 12.62269243544938
GLOBALSTAR M087         
1 52888U 22064A   24337.41490818 -.00000072  00000+0  11319-3 0  9996
2 52888  51.9779 342.6285 0035485  21.5264 338.7117 13.30671649120021
